[
    {
        "Altitude(m)": 558431.0862309224,
        "Argument of Periapsis(deg)": 0.0,
        "Eccentricity": 0.0,
        "Inclination(deg)": 53.0,
        "Latitude(deg)": 46.733998331181674,
        "Longitude(deg)": -122.1981832778762,
        "Mean Anomaly(deg)": 65.45449999999998,
        "RAAN(deg)": 285.0,
        "Satellite Name": "Starlink Shell 1 1258",
        "Satellite Number": 1258,
        "Semi-Major Axis(m)": 6931778.249405717,
        "Time(s)": 0
    },
    {
        "Altitude(m)": 558499.5954434783,
        "Argument of Periapsis(deg)": 0.00034857847951123687,
        "Eccentricity": 0.0,
        "Inclination(deg)": 53.0,
        "Latitude(deg)": 47.03448244837613,
        "Longitude(deg)": -121.43620765962118,
        "Mean Anomaly(deg)": 66.08133120355673,
        "RAAN(deg)": 284.9994812299225,
        "Satellite Name": "Starlink Shell 1 1258",
        "Satellite Number": 1258,
        "Semi-Major Axis(m)": 6931778.249405717,
        "Time(s)": 10
    },
    {
        "Altitude(m)": 558566.8861436998,
        "Argument of Periapsis(deg)": 0.0006971569590224737,
        "Eccentricity": 0.0,
        "Inclination(deg)": 53.0,
        "Latitude(deg)": 47.329255394644264,
        "Longitude(deg)": -120.66525840679498,
        "Mean Anomaly(deg)": 66.70816240711342,
        "RAAN(deg)": 284.998962459845,
        "Satellite Name": "Starlink Shell 1 1258",
        "Satellite Number": 1258,
        "Semi-Major Axis(m)": 6931778.249405717,
        "Time(s)": 20
    },
    {
        "Altitude(m)": 558632.9168338338,
        "Argument of Periapsis(deg)": 0.0010457354385337105,
        "Eccentricity": 0.0,
        "Inclination(deg)": 53.0,
        "Latitude(deg)": 47.61819523475408,
        "Longitude(deg)": -119.88531921955526,
        "Mean Anomaly(deg)": 67.33499361067017,
        "RAAN(deg)": 284.99844368976756,
        "Satellite Name": "Starlink Shell 1 1258",
        "Satellite Number": 1258,
        "Semi-Major Axis(m)": 6931778.249405717,
        "Time(s)": 30
    },
    {
        "Altitude(m)": 558697.6468598404,
        "Argument of Periapsis(deg)": 0.0013943139180449475,
        "Eccentricity": 0.0,
        "Inclination(deg)": 53.0,
        "Latitude(deg)": 47.90117918636522,
        "Longitude(deg)": -119.09638336936882,
        "Mean Anomaly(deg)": 67.96182481422682,
        "RAAN(deg)": 284.9979249196901,
        "Satellite Name": "Starlink Shell 1 1258",
        "Satellite Number": 1258,
        "Semi-Major Axis(m)": 6931778.249405717,
        "Time(s)": 40
    },
    {
        "Altitude(m)": 558761.0364315106,
        "Argument of Periapsis(deg)": 0.0017428923975561844,
        "Eccentricity": 0.0,
        "Inclination(deg)": 53.0,
        "Latitude(deg)": 48.178083760996586,
        "Longitude(deg)": -118.29845526676452,
        "Mean Anomaly(deg)": 68.58865601778356,
        "RAAN(deg)": 284.99740614961263,
        "Satellite Name": "Starlink Shell 1 1258",
        "Satellite Number": 1258,
        "Semi-Major Axis(m)": 6931778.249405717,
        "Time(s)": 50
    },
    {
        "Altitude(m)": 558823.0466421518,
        "Argument of Periapsis(deg)": 0.002091470877067421,
        "Eccentricity": 0.0,
        "Inclination(deg)": 53.0,
        "Latitude(deg)": 48.4487849160523,
        "Longitude(deg)": -117.49155051444778,
        "Mean Anomaly(deg)": 69.21548722134031,
        "RAAN(deg)": 284.9968873795351,
        "Satellite Name": "Starlink Shell 1 1258",
        "Satellite Number": 1258,
        "Semi-Major Axis(m)": 6931778.249405717,
        "Time(s)": 60
    },
    {
        "Altitude(m)": 558883.6394878244,
        "Argument of Periapsis(deg)": 0.0024400493565786582,
        "Eccentricity": 0.0,
        "Inclination(deg)": 53.0,
        "Latitude(deg)": 48.71315821803916,
        "Longitude(deg)": -116.67569595520483,
        "Mean Anomaly(deg)": 69.842318424897,
        "RAAN(deg)": 284.99636860945765,
        "Satellite Name": "Starlink Shell 1 1258",
        "Satellite Number": 1258,
        "Semi-Major Axis(m)": 6931778.249405717,
        "Time(s)": 70
    },
    {
        "Altitude(m)": 558942.7778860964,
        "Argument of Periapsis(deg)": 0.002788627836089895,
        "Eccentricity": 0.0,
        "Inclination(deg)": 53.0,
        "Latitude(deg)": 48.9710790170421,
        "Longitude(deg)": -115.85093122374155,
        "Mean Anomaly(deg)": 70.4691496284537,
        "RAAN(deg)": 284.99584983938024,
        "Satellite Name": "Starlink Shell 1 1258",
        "Satellite Number": 1258,
        "Semi-Major Axis(m)": 6931778.249405717,
        "Time(s)": 80
    },
    {
        "Altitude(m)": 559000.4256943543,
        "Argument of Periapsis(deg)": 0.0031372063156011316,
        "Eccentricity": 0.0,
        "Inclination(deg)": 53.0,
        "Latitude(deg)": 49.22242263244662,
        "Longitude(deg)": -115.01730877270155,
        "Mean Anomaly(deg)": 71.0959808320104,
        "RAAN(deg)": 284.9953310693027,
        "Satellite Name": "Starlink Shell 1 1258",
        "Satellite Number": 1258,
        "Semi-Major Axis(m)": 6931778.249405717,
        "Time(s)": 90
    },
    {
        "Altitude(m)": 559056.5477276128,
        "Argument of Periapsis(deg)": 0.0034857847951123688,
        "Eccentricity": 0.0,
        "Inclination(deg)": 53.0,
        "Latitude(deg)": 49.467064549821544,
        "Longitude(deg)": -114.17489388145154,
        "Mean Anomaly(deg)": 71.72281203556715,
        "RAAN(deg)": 284.99481229922526,
        "Satellite Name": "Starlink Shell 1 1258",
        "Satellite Number": 1258,
        "Semi-Major Axis(m)": 6931778.249405717,
        "Time(s)": 100
    },
    {
        "Altitude(m)": 559111.1097758443,
        "Argument of Periapsis(deg)": 0.003834363274623606,
        "Eccentricity": 0.0,
        "Inclination(deg)": 53.0,
        "Latitude(deg)": 49.70488062878757,
        "Longitude(deg)": -113.32376615597931,
        "Mean Anomaly(deg)": 72.34964323912389,
        "RAAN(deg)": 284.9942935291478,
        "Satellite Name": "Starlink Shell 1 1258",
        "Satellite Number": 1258,
        "Semi-Major Axis(m)": 6931778.249405717,
        "Time(s)": 110
    },
    {
        "Altitude(m)": 559164.0786208323,
        "Argument of Periapsis(deg)": 0.004182941754134842,
        "Eccentricity": 0.0,
        "Inclination(deg)": 53.0,
        "Latitude(deg)": 49.93574732159799,
        "Longitude(deg)": -112.46401948941221,
        "Mean Anomaly(deg)": 72.97647444268054,
        "RAAN(deg)": 284.99377475907033,
        "Satellite Name": "Starlink Shell 1 1258",
        "Satellite Number": 1258,
        "Semi-Major Axis(m)": 6931778.249405717,
        "Time(s)": 120
    },
    {
        "Altitude(m)": 559215.4220525014,
        "Argument of Periapsis(deg)": 0.004531520233646079,
        "Eccentricity": 0.0,
        "Inclination(deg)": 53.0,
        "Latitude(deg)": 50.159541902061235,
        "Longitude(deg)": -111.5957619910898,
        "Mean Anomaly(deg)": 73.60330564623733,
        "RAAN(deg)": 284.9932559889928,
        "Satellite Name": "Starlink Shell 1 1258",
        "Satellite Number": 1258,
        "Semi-Major Axis(m)": 6931778.249405717,
        "Time(s)": 130
    },
    {
        "Altitude(m)": 559265.108884753,
        "Argument of Periapsis(deg)": 0.0048800987131573164,
        "Eccentricity": 0.0,
        "Inclination(deg)": 53.0,
        "Latitude(deg)": 50.37614270432814,
        "Longitude(deg)": -110.7191173919822,
        "Mean Anomaly(deg)": 74.23013684979396,
        "RAAN(deg)": 284.99273721891535,
        "Satellite Name": "Starlink Shell 1 1258",
        "Satellite Number": 1258,
        "Semi-Major Axis(m)": 6931778.249405717,
        "Time(s)": 140
    },
    {
        "Altitude(m)": 559313.1089707791,
        "Argument of Periapsis(deg)": 0.005228677192668553,
        "Eccentricity": 0.0,
        "Inclination(deg)": 53.0,
        "Latitude(deg)": 50.58542937095131,
        "Longitude(deg)": -109.83422489552109,
        "Mean Anomaly(deg)": 74.85696805335073,
        "RAAN(deg)": 284.9922184488379,
        "Satellite Name": "Starlink Shell 1 1258",
        "Satellite Number": 1258,
        "Semi-Major Axis(m)": 6931778.249405717,
        "Time(s)": 150
    },
    {
        "Altitude(m)": 559359.3932178731,
        "Argument of Periapsis(deg)": 0.00557725567217979,
        "Eccentricity": 0.0,
        "Inclination(deg)": 53.0,
        "Latitude(deg)": 50.78728310951173,
        "Longitude(deg)": -108.94123898149091,
        "Mean Anomaly(deg)": -284.5162007430925,
        "RAAN(deg)": 284.9916996787604,
        "Satellite Name": "Starlink Shell 1 1258",
        "Satellite Number": 1258,
        "Semi-Major Axis(m)": 6931778.249405717,
        "Time(s)": 160
    },
    {
        "Altitude(m)": 559403.9336016772,
        "Argument of Periapsis(deg)": 0.0059258341516910265,
        "Eccentricity": 0.0,
        "Inclination(deg)": 53.0,
        "Latitude(deg)": 50.98158695699032,
        "Longitude(deg)": -108.04033067062524,
        "Mean Anomaly(deg)": -283.8893695395359,
        "RAAN(deg)": 284.99118090868296,
        "Satellite Name": "Starlink Shell 1 1258",
        "Satellite Number": 1258,
        "Semi-Major Axis(m)": 6931778.249405717,
        "Time(s)": 170
    },
    {
        "Altitude(m)": 559446.7031799582,
        "Argument of Periapsis(deg)": 0.006274412631202263,
        "Eccentricity": 0.0,
        "Inclination(deg)": 53.0,
        "Latitude(deg)": 51.1682260509382,
        "Longitude(deg)": -107.13168721903133,
        "Mean Anomaly(deg)": -283.2625383359792,
        "RAAN(deg)": 284.99066213860544,
        "Satellite Name": "Starlink Shell 1 1258",
        "Satellite Number": 1258,
        "Semi-Major Axis(m)": 6931778.249405717,
        "Time(s)": 180
    }
]